PHASE 3B (AO-10)        
1 14129U 83058B   21019.88278163 -.00000084  00000-0  00000-0 0  9990
2 14129  25.7855 179.4221 6066274 302.7829  12.6233  2.05868708254865
UOSAT 2 (UO-11)         
1 14781U 84021B   21020.72357689  .00000120  00000-0  20814-4 0  9990
2 14781  97.5900  27.8692 0007878 197.7370 162.3571 14.83238821964038
LUSAT (LO-19)           
1 20442U 90005G   21021.15770990  .00000009  00000-0  19991-4 0  9992
2 20442  98.7222 335.4468 0010850 231.3589 128.6624 14.32973906619797
EYESAT A (AO-27)        
1 22825U 93061C   21020.75399562 -.00000016  00000-0  11874-4 0  9992
2 22825  98.9243  34.6873 0009448 103.2997 256.9238 14.30103899424871
ITAMSAT (IO-26)         
1 22826U 93061D   21020.96913809 -.00000002  00000-0  17180-4 0  9993
2 22826  98.9185  34.8310 0009998  91.8223 268.4104 14.30441561425398
RADIO ROSTO (RS-15)     
1 23439U 94085A   21020.94529319 -.00000037  00000-0  15882-3 0  9992
2 23439  64.8171 254.5257 0156146   1.7516 358.3925 11.27570155 73709
JAS-2 (FO-29)           
1 24278U 96046B   21020.48855918 -.00000006  00000-0  29189-4 0  9991
2 24278  98.5842 107.9741 0350562 172.7701 187.8688 13.53102157206233
TECHSAT 1B (GO-32)      
1 25397U 98043D   21020.82008722 -.00000011  00000-0  14645-4 0  9991
2 25397  98.7548 326.9158 0001997 122.2927 237.8445 14.23699610170488
ISS (ZARYA)             
1 25544U 98067A   21021.23644251  .00000271  00000-0  12932-4 0  9994
2 25544  51.6458 349.5538 0000465 309.6425   5.9975 15.49303396265812
PCSAT (NO-44)           
1 26931U 01043C   21020.52583757 -.00000048  00000-0  13217-4 0  9997
2 26931  67.0523 302.2039 0007406 271.6882  88.3371 14.30603169  8085
SAUDISAT 1C (SO-50)     
1 27607U 02058C   21020.84039710 -.00000006  00000-0  19415-4 0  9995
2 27607  64.5558  69.7135 0029360  86.7170 273.7290 14.75703939972799
CUTE-1 (CO-55)          
1 27844U 03031E   21020.95556909  .00000054  00000-0  43733-4 0  9998
2 27844  98.6818  31.3956 0010509 141.4022 218.7909 14.22283119911014
CUBESAT XI-IV (CO-57)   
1 27848U 03031J   21020.69394325  .00000033  00000-0  34733-4 0  9992
2 27848  98.6880  31.7060 0010200 154.1984 205.9704 14.21863673910819
MOZHAYETS 4 (RS-22)     
1 27939U 03042A   21021.11910467  .00000099  00000-0  26344-4 0  9995
2 27939  98.1174 159.4592 0013418  31.4453 328.7539 14.66934572925925
CUBESAT XI-V            
1 28895U 05043F   21021.12711676  .00000117  00000-0  31374-4 0  9992
2 28895  98.0360 157.7942 0015768 317.6776  42.3209 14.63855450812685
CUTE-1.7+APD II (CO-65) 
1 32785U 08021C   21020.92875873  .00000235  00000-0  30797-4 0  9990
2 32785  97.5952   5.6511 0014147 128.1023 232.1473 14.88614491690223
DELFI-C3 (DO-64)        
1 32789U 08021G   21020.84387460  .00001684  00000-0  11204-3 0  9995
2 32789  97.3946  61.8076 0010398 292.1521  67.8604 15.08407733694570
SEEDS II (CO-66)        
1 32791U 08021J   21021.22148354  .00000274  00000-0  32868-4 0  9992
2 32791  97.5580  11.9699 0014781  96.0943 264.1960 14.91251562690914
YUBILEINY (RS-30)       
1 32953U 08025A   21021.10448438  .00000028  00000-0  12906-3 0  9996
2 32953  82.5049 142.5764 0018525 298.6762  61.2455 12.43099401574677
KKS-1 (KISEKI)          
1 33499U 09002H   21021.12466851  .00000095  00000-0  21903-4 0  9991
2 33499  98.2889 247.6160 0009739 144.6041 215.5815 14.75608568645112
SWISSCUBE               
1 35932U 09051B   21020.79296858  .00000131  00000-0  40608-4 0  9993
2 35932  98.6068 216.0958 0007656 173.0101 187.1204 14.56478268601460
BEESAT-1                
1 35933U 09051C   21020.48999742  .00000094  00000-0  32045-4 0  9996
2 35933  98.6044 217.6385 0005596 184.2599 175.8551 14.56543254601492
ITUPSAT1                
1 35935U 09051E   21020.81875275  .00000092  00000-0  32305-4 0  9996
2 35935  98.6150 218.1439 0007922 186.5179 173.5916 14.55681486601299
XIWANG-1 (HOPE-1)       
1 36122U 09072B   21020.70159917 -.00000035  00000-0  18630-4 0  9997
2 36122 100.1133   7.6024 0008180  83.7640 276.4406 13.16358627533450
JUGNU                   
1 37839U 11058B   21020.78256493  .00000303  00000-0  19773-4 0  9991
2 37839  19.9628  44.7728 0018654 264.3191 251.6250 14.12700912479557
SRMSAT                  
1 37841U 11058D   21020.96029271  .00000289  00000-0  13830-4 0  9997
2 37841  19.9720 112.5199 0011964 112.7419  42.9728 14.10683352479013
M-CUBED & EXP-1 PRIME   
1 37855U 11061F   21020.80300280  .00001637  00000-0  86595-4 0  9997
2 37855 101.7265 227.6311 0168572 149.6389 211.4719 15.07105856503936
STRAND-1                
1 39090U 13009E   21020.81306288  .00000027  00000-0  24604-4 0  9994
2 39090  98.4365 226.3892 0009215   5.2156 354.9124 14.35164574413866
SOMP                    
1 39134U 13015E   21020.49582425  .00001330  00000-0  67089-4 0  9995
2 39134  64.8631 293.3686 0012102 219.5032 140.5215 15.21891098428696
BEESAT-3                
1 39135U 13015F   21020.25585265  .00000936  00000-0  54211-4 0  9999
2 39135  64.8680 320.9555 0017073 207.7598 152.2619 15.18840171428130
BEESAT-2                
1 39136U 13015G   21020.85130079  .00001257  00000-0  70383-4 0  9990
2 39136  64.8744 324.8248 0029083 263.1553  96.6264 15.18220398428102
ZACUBE-1 (TSHEPISOSAT)  
1 39417U 13066B   21020.93779926  .00000254  00000-0  38207-4 0  9992
2 39417  97.5799  13.0313 0057292 285.2348  74.2536 14.81412103387235
GOMX-1                  
1 39430U 13066Q   21021.07153930  .00000130  00000-0  32782-4 0  9999
2 39430  97.8092 312.6496 0149681 218.7425 140.2969 14.59523223381543
CUBEBUG-2 (LO-74)       
1 39440U 13066AA  21020.68528961  .00000340  00000-0  53895-4 0  9997
2 39440  97.6575 357.4971 0079914 356.1002   3.9576 14.76144271384624
FUNCUBE-1 (AO-73)       
1 39444U 13066AE  21020.74107882  .00000329  00000-0  46549-4 0  9998
2 39444  97.5721  15.1729 0056318 276.8206  82.6602 14.82296797385551
UWE-3                   
1 39446U 13066AG  21020.91100616  .00000278  00000-0  43378-4 0  9997
2 39446  97.6205   4.7818 0068907 321.4678  38.1625 14.78679886384707
SPROUT                  
1 39770U 14029E   21021.23731357  .00000681  00000-0  79998-4 0  9990
2 39770  97.9069 132.7921 0008656 339.2464  20.8398 14.88134169361442
UNISAT-6                
1 40012U 14033C   21020.81246122  .00000188  00000-0  35111-4 0  9991
2 40012  97.6867 230.8737 0058656  19.0774 341.2613 14.74228886354440
DUCHIFAT-1              
1 40021U 14033M   21020.58156327  .00000576  00000-0  63925-4 0  9997
2 40021  97.9605 319.3452 0011616 295.3035  64.6979 14.91150590358242
QB50P1                  
1 40025U 14033R   21020.75024071  .00000380  00000-0  46029-4 0  9999
2 40025  97.9264 311.1328 0011355 309.1903  50.8305 14.89308782357432
NUDT-PHONESAT           
1 40900U 15049B   21021.08928403  .00002384  00000-0  97384-4 0  9994
2 40900  97.4259  36.2409 0010775 303.3959 128.5224 15.25331880296352
ZDPS 2A                 
1 40901U 15049C   21021.05210225  .00001236  00000-0  62354-4 0  9992
2 40901  97.4629  29.9674 0012617 342.5094 103.8364 15.18945045295591
ZDPS 2B                 
1 40902U 15049D   21021.03368542  .00001231  00000-0  62075-4 0  9992
2 40902  97.4647  27.2336 0012550 339.8387 104.9914 15.18960216295565
XW-2A                   
1 40903U 15049E   21021.12009616  .00002302  00000-0  51901-4 0  9993
2 40903  97.2588  75.9722 0012472 183.8072 204.9771 15.44238881300056
KAITUO 1A               
1 40904U 15049F   21021.10072031  .00000265  00000-0  17281-4 0  9992
2 40904  97.4827  24.9411 0014458 355.4587  91.8486 15.15967481295218
2015-049G               
1 40905U 15049G   21021.08523957  .00000169  00000-0  12642-4 0  9997
2 40905  97.4944  22.0460 0015353 353.8253  79.0897 15.14794454295029
XW-2C                   
1 40906U 15049H   21021.02828644  .00000493  00000-0  28768-4 0  9999
2 40906  97.4829  25.2841 0014251 345.8432  88.9829 15.16433610295228
XW-2D                   
1 40907U 15049J   21021.05139565  .00000889  00000-0  48737-4 0  9997
2 40907  97.4817  25.0564 0013459 342.7199  89.7496 15.16716410295255
LILACSAT-2              
1 40908U 15049K   21021.06157434  .00000580  00000-0  35273-4 0  9993
2 40908  97.4992  23.1196 0015581 355.5099  76.7681 15.14259598294921
XW-2F                   
1 40910U 15049M   21021.12563859  .00001239  00000-0  63248-4 0  9990
2 40910  97.4713  28.0180 0013584 329.2043  96.8641 15.18532423295363
XW-2B                   
1 40911U 15049N   21021.11149461  .00000794  00000-0  43999-4 0  9995
2 40911  97.4817  25.8107 0013540 343.5628  84.6941 15.16636853295158
KAITUO 1B               
1 40912U 15049P   21021.16763795  .00001193  00000-0  56866-4 0  9994
2 40912  97.4468  32.3787 0013117 301.6586 122.5858 15.21002333295803
TIANWANG 1C (TW-1C)     
1 40926U 15051B   21021.09050096  .00156027  10708-4  53314-3 0  9998
2 40926  97.0472  82.2278 0001308 322.9291 123.8250 15.89765911301244
TIANWANG 1A (TW-1A)     
1 40928U 15051D   21021.12614786  .00003291  00000-0  73158-4 0  9999
2 40928  97.0912  49.6106 0011761 109.6269 323.0950 15.44300095298943
LAPAN-A2                
1 40931U 15052B   21020.02221672  .00000755  00000-0  16023-4 0  9990
2 40931   5.9986 230.9953 0012935 100.2808 259.8784 14.76659921287321
E-ST@R-II               
1 41459U 16025D   21021.14679670  .00003442  00000-0  17237-3 0  9999
2 41459  98.1213 148.8615 0162764 198.4829 161.0427 15.07296275260226
AAUSAT 4                
1 41460U 16025E   21020.99479731  .00003650  00000-0  17580-3 0  9991
2 41460  98.1208 151.8794 0150400 184.9995 174.9728 15.10005096260457
NUSAT-1 (FRESCO)        
1 41557U 16033B   21021.09510903  .00001315  00000-0  49575-4 0  9992
2 41557  97.3975 115.9409 0014300  43.2105  54.1002 15.28784457259016
BEESAT-4                
1 41619U 16040W   21020.90544184  .00001657  00000-0  69478-4 0  9999
2 41619  97.2920  81.0240 0012220 127.9584 232.2760 15.24810800242526
